2025-313D               
1 67251U 25313D   26009.50651788  .00004048  00000+0  35417-3 0  9990
2 67251  97.5881  86.5206 0152228 133.6916 227.7033 14.88710102  1789
2025-313E               
1 67252U 25313E   26009.51542369  .00009618  00000+0  42898-3 0  9995
2 67252  97.4114  86.7973 0010660 175.4220 184.7115 15.21555310  1820
2025-313F               
1 67253U 25313F   26009.51311644  .00052862  00000+0  54567-3 0  9991
2 67253  97.1036  86.8004 0010136 195.5751 164.5198 15.64570268  1853
2025-313G               
1 67254U 25313G   26009.51353286  .00049312  00000+0  51106-3 0  9992
2 67254  97.1035  86.7998 0010299 196.7338 163.3584 15.64480766  1846
2025-313H               
1 67255U 25313H   26009.53390418  .00002052  00000+0  14705-3 0  9997
2 67255  97.3110  86.3301 0090639 154.5519 206.0211 15.02147007  1804
2025-313J               
1 67256U 25313J   26009.52938358  .00010478  00000+0  49075-3 0  9997
2 67256  97.4107  86.7744 0016467 194.4367 165.6400 15.19778895  1823
2025-313K               
1 67257U 25313K   26009.52906571  .00009732  00000+0  45578-3 0  9995
2 67257  97.4114  86.7758 0016202 196.5764 163.4944 15.19806601  1824
2025-313L               
1 67258U 25313L   26009.52886852  .00010942  00000+0  51134-3 0  9995
2 67258  97.4109  86.7749 0016130 195.8958 164.1773 15.19848134  1821
2025-313M               
1 67259U 25313M   26009.52719380  .00013850  00000+0  64151-3 0  9991
2 67259  97.4152  86.7951 0015397 194.3256 165.7545 15.20109240  1828
2025-313N               
1 67260U 25313N   26009.52775931  .00008352  00000+0  39010-3 0  9994
2 67260  97.4120  86.7777 0015496 196.1303 163.9441 15.19956210  1824
2025-313P               
1 67261U 25313P   26009.46071557  .00019937  00000+0  91736-3 0  9995
2 67261  97.4154  86.7317 0015223 194.7886 165.2906 15.20259450  1814
2025-313Q               
1 67262U 25313Q   26009.52703546  .00012522  00000+0  58053-3 0  9991
2 67262  97.4120  86.7793 0015233 196.6272 163.4465 15.20104682  1824
