CCSDS_OMM_VERS = 2.0
CREATION_DATE  = 
ORIGINATOR     = 

OBJECT_NAME    = 2025-313D
OBJECT_ID      = 2025-313D
CENTER_NAME    = EARTH
REF_FRAME      = TEME
TIME_SYSTEM    = UTC
MEAN_ELEMENT_THEORY = SGP/SGP4

EPOCH          = 2026-01-09T12:09:23.144832
MEAN_MOTION    = 14.88710102
ECCENTRICITY   = .01522282
INCLINATION    = 97.5881
RA_OF_ASC_NODE = 86.5206
ARG_OF_PERICENTER = 133.6916
MEAN_ANOMALY   = 227.7033

EPHEMERIS_TYPE = 0
CLASSIFICATION_TYPE = U
NORAD_CAT_ID   = 67251
ELEMENT_SET_NO = 999
REV_AT_EPOCH   = 178
BSTAR          = .35416911E-3
MEAN_MOTION_DOT = .4048E-4
MEAN_MOTION_DDOT = 0

CCSDS_OMM_VERS = 2.0
CREATION_DATE  = 
ORIGINATOR     = 

OBJECT_NAME    = 2025-313E
OBJECT_ID      = 2025-313E
CENTER_NAME    = EARTH
REF_FRAME      = TEME
TIME_SYSTEM    = UTC
MEAN_ELEMENT_THEORY = SGP/SGP4

EPOCH          = 2026-01-09T12:22:12.606816
MEAN_MOTION    = 15.21555310
ECCENTRICITY   = .00106604
INCLINATION    = 97.4114
RA_OF_ASC_NODE = 86.7973
ARG_OF_PERICENTER = 175.4220
MEAN_ANOMALY   = 184.7115

EPHEMERIS_TYPE = 0
CLASSIFICATION_TYPE = U
NORAD_CAT_ID   = 67252
ELEMENT_SET_NO = 999
REV_AT_EPOCH   = 182
BSTAR          = .42898296E-3
MEAN_MOTION_DOT = .9618E-4
MEAN_MOTION_DDOT = 0

CCSDS_OMM_VERS = 2.0
CREATION_DATE  = 
ORIGINATOR     = 

OBJECT_NAME    = 2025-313F
OBJECT_ID      = 2025-313F
CENTER_NAME    = EARTH
REF_FRAME      = TEME
TIME_SYSTEM    = UTC
MEAN_ELEMENT_THEORY = SGP/SGP4

EPOCH          = 2026-01-09T12:18:53.260416
MEAN_MOTION    = 15.64570268
ECCENTRICITY   = .00101365
INCLINATION    = 97.1036
RA_OF_ASC_NODE = 86.8004
ARG_OF_PERICENTER = 195.5751
MEAN_ANOMALY   = 164.5198

EPHEMERIS_TYPE = 0
CLASSIFICATION_TYPE = U
NORAD_CAT_ID   = 67253
ELEMENT_SET_NO = 999
REV_AT_EPOCH   = 185
BSTAR          = .54566853E-3
MEAN_MOTION_DOT = .52862E-3
MEAN_MOTION_DDOT = 0

CCSDS_OMM_VERS = 2.0
CREATION_DATE  = 
ORIGINATOR     = 

OBJECT_NAME    = 2025-313G
OBJECT_ID      = 2025-313G
CENTER_NAME    = EARTH
REF_FRAME      = TEME
TIME_SYSTEM    = UTC
MEAN_ELEMENT_THEORY = SGP/SGP4

EPOCH          = 2026-01-09T12:19:29.239104
MEAN_MOTION    = 15.64480766
ECCENTRICITY   = .00102991
INCLINATION    = 97.1035
RA_OF_ASC_NODE = 86.7998
ARG_OF_PERICENTER = 196.7338
MEAN_ANOMALY   = 163.3584

EPHEMERIS_TYPE = 0
CLASSIFICATION_TYPE = U
NORAD_CAT_ID   = 67254
ELEMENT_SET_NO = 999
REV_AT_EPOCH   = 184
BSTAR          = .51106226E-3
MEAN_MOTION_DOT = .49312E-3
MEAN_MOTION_DDOT = 0

CCSDS_OMM_VERS = 2.0
CREATION_DATE  = 
ORIGINATOR     = 

OBJECT_NAME    = 2025-313H
OBJECT_ID      = 2025-313H
CENTER_NAME    = EARTH
REF_FRAME      = TEME
TIME_SYSTEM    = UTC
MEAN_ELEMENT_THEORY = SGP/SGP4

EPOCH          = 2026-01-09T12:48:49.321152
MEAN_MOTION    = 15.02147007
ECCENTRICITY   = .00906391
INCLINATION    = 97.3110
RA_OF_ASC_NODE = 86.3301
ARG_OF_PERICENTER = 154.5519
MEAN_ANOMALY   = 206.0211

EPHEMERIS_TYPE = 0
CLASSIFICATION_TYPE = U
NORAD_CAT_ID   = 67255
ELEMENT_SET_NO = 999
REV_AT_EPOCH   = 180
BSTAR          = .1470467E-3
MEAN_MOTION_DOT = .2052E-4
MEAN_MOTION_DDOT = 0

CCSDS_OMM_VERS = 2.0
CREATION_DATE  = 
ORIGINATOR     = 

OBJECT_NAME    = SITRO-AIS-57
OBJECT_ID      = 2025-313J
CENTER_NAME    = EARTH
REF_FRAME      = TEME
TIME_SYSTEM    = UTC
MEAN_ELEMENT_THEORY = SGP/SGP4

EPOCH          = 2026-01-09T12:42:18.741312
MEAN_MOTION    = 15.19778895
ECCENTRICITY   = .00164677
INCLINATION    = 97.4107
RA_OF_ASC_NODE = 86.7744
ARG_OF_PERICENTER = 194.4367
MEAN_ANOMALY   = 165.6400

EPHEMERIS_TYPE = 0
CLASSIFICATION_TYPE = U
NORAD_CAT_ID   = 67256
ELEMENT_SET_NO = 999
REV_AT_EPOCH   = 182
BSTAR          = .49075462E-3
MEAN_MOTION_DOT = .10478E-3
MEAN_MOTION_DDOT = 0

CCSDS_OMM_VERS = 2.0
CREATION_DATE  = 
ORIGINATOR     = 

OBJECT_NAME    = SITRO-AIS-59
OBJECT_ID      = 2025-313K
CENTER_NAME    = EARTH
REF_FRAME      = TEME
TIME_SYSTEM    = UTC
MEAN_ELEMENT_THEORY = SGP/SGP4

EPOCH          = 2026-01-09T12:41:51.277344
MEAN_MOTION    = 15.19806601
ECCENTRICITY   = .00162029
INCLINATION    = 97.4114
RA_OF_ASC_NODE = 86.7758
ARG_OF_PERICENTER = 196.5764
MEAN_ANOMALY   = 163.4944

EPHEMERIS_TYPE = 0
CLASSIFICATION_TYPE = U
NORAD_CAT_ID   = 67257
ELEMENT_SET_NO = 999
REV_AT_EPOCH   = 182
BSTAR          = .45578108E-3
MEAN_MOTION_DOT = .9732E-4
MEAN_MOTION_DDOT = 0

CCSDS_OMM_VERS = 2.0
CREATION_DATE  = 
ORIGINATOR     = 

OBJECT_NAME    = SITRO-AIS-58
OBJECT_ID      = 2025-313L
CENTER_NAME    = EARTH
REF_FRAME      = TEME
TIME_SYSTEM    = UTC
MEAN_ELEMENT_THEORY = SGP/SGP4

EPOCH          = 2026-01-09T12:41:34.240128
MEAN_MOTION    = 15.19848134
ECCENTRICITY   = .00161305
INCLINATION    = 97.4109
RA_OF_ASC_NODE = 86.7749
ARG_OF_PERICENTER = 195.8958
MEAN_ANOMALY   = 164.1773

EPHEMERIS_TYPE = 0
CLASSIFICATION_TYPE = U
NORAD_CAT_ID   = 67258
ELEMENT_SET_NO = 999
REV_AT_EPOCH   = 182
BSTAR          = .51134364E-3
MEAN_MOTION_DOT = .10942E-3
MEAN_MOTION_DDOT = 0

CCSDS_OMM_VERS = 2.0
CREATION_DATE  = 
ORIGINATOR     = 

OBJECT_NAME    = 2025-313M
OBJECT_ID      = 2025-313M
CENTER_NAME    = EARTH
REF_FRAME      = TEME
TIME_SYSTEM    = UTC
MEAN_ELEMENT_THEORY = SGP/SGP4

EPOCH          = 2026-01-09T12:39:09.544320
MEAN_MOTION    = 15.20109240
ECCENTRICITY   = .00153972
INCLINATION    = 97.4152
RA_OF_ASC_NODE = 86.7951
ARG_OF_PERICENTER = 194.3256
MEAN_ANOMALY   = 165.7545

EPHEMERIS_TYPE = 0
CLASSIFICATION_TYPE = U
NORAD_CAT_ID   = 67259
ELEMENT_SET_NO = 999
REV_AT_EPOCH   = 182
BSTAR          = .64150725E-3
MEAN_MOTION_DOT = .1385E-3
MEAN_MOTION_DDOT = 0

CCSDS_OMM_VERS = 2.0
CREATION_DATE  = 
ORIGINATOR     = 

OBJECT_NAME    = SITRO-AIS-60
OBJECT_ID      = 2025-313N
CENTER_NAME    = EARTH
REF_FRAME      = TEME
TIME_SYSTEM    = UTC
MEAN_ELEMENT_THEORY = SGP/SGP4

EPOCH          = 2026-01-09T12:39:58.404384
MEAN_MOTION    = 15.19956210
ECCENTRICITY   = .00154969
INCLINATION    = 97.4120
RA_OF_ASC_NODE = 86.7777
ARG_OF_PERICENTER = 196.1303
MEAN_ANOMALY   = 163.9441

EPHEMERIS_TYPE = 0
CLASSIFICATION_TYPE = U
NORAD_CAT_ID   = 67260
ELEMENT_SET_NO = 999
REV_AT_EPOCH   = 182
BSTAR          = .39009783E-3
MEAN_MOTION_DOT = .8352E-4
MEAN_MOTION_DDOT = 0

CCSDS_OMM_VERS = 2.0
CREATION_DATE  = 
ORIGINATOR     = 

OBJECT_NAME    = 2025-313P
OBJECT_ID      = 2025-313P
CENTER_NAME    = EARTH
REF_FRAME      = TEME
TIME_SYSTEM    = UTC
MEAN_ELEMENT_THEORY = SGP/SGP4

EPOCH          = 2026-01-09T11:03:25.825248
MEAN_MOTION    = 15.20259450
ECCENTRICITY   = .00152239
INCLINATION    = 97.4154
RA_OF_ASC_NODE = 86.7317
ARG_OF_PERICENTER = 194.7886
MEAN_ANOMALY   = 165.2906

EPHEMERIS_TYPE = 0
CLASSIFICATION_TYPE = U
NORAD_CAT_ID   = 67261
ELEMENT_SET_NO = 999
REV_AT_EPOCH   = 181
BSTAR          = .91736494E-3
MEAN_MOTION_DOT = .19937E-3
MEAN_MOTION_DDOT = 0

CCSDS_OMM_VERS = 2.0
CREATION_DATE  = 
ORIGINATOR     = 

OBJECT_NAME    = 2025-313Q
OBJECT_ID      = 2025-313Q
CENTER_NAME    = EARTH
REF_FRAME      = TEME
TIME_SYSTEM    = UTC
MEAN_ELEMENT_THEORY = SGP/SGP4

EPOCH          = 2026-01-09T12:38:55.863744
MEAN_MOTION    = 15.20104682
ECCENTRICITY   = .00152338
INCLINATION    = 97.4120
RA_OF_ASC_NODE = 86.7793
ARG_OF_PERICENTER = 196.6272
MEAN_ANOMALY   = 163.4465

EPHEMERIS_TYPE = 0
CLASSIFICATION_TYPE = U
NORAD_CAT_ID   = 67262
ELEMENT_SET_NO = 999
REV_AT_EPOCH   = 182
BSTAR          = .58052887E-3
MEAN_MOTION_DOT = .12522E-3
MEAN_MOTION_DDOT = 0

